{
"type": "FeatureCollection",
"name": "Toponimi",
"crs": { "type": "name", "properties": { "name": "urn:ogc:def:crs:OGC:1.3:CRS84" } },
"features": [
{"type":"Feature","properties":{"OBJECTID":222.0,"LAYER":"Toponimi","NAMA_UNSUR":"Tanjung","TOPONIMI":"Tg. Saganji","image":null},"geometry":{"type":"Point","coordinates":[123.165283203000058,-8.265856742999915,0.0]}},
{"type":"Feature","properties":{"OBJECTID":232.0,"LAYER":"Toponimi","NAMA_UNSUR":"Tanjung","TOPONIMI":"Tg. Matodai","image":null},"geometry":{"type":"Point","coordinates":[123.056838989000084,-8.302433967999946,0.0]}},
{"type":"Feature","properties":{"OBJECTID":233.0,"LAYER":"Toponimi","NAMA_UNSUR":"Toponimi","TOPONIMI":"Mokko","image":null},"geometry":{"type":"Point","coordinates":[123.324821472000053,-8.304313659999934,0.0]}},
{"type":"Feature","properties":{"OBJECTID":236.0,"LAYER":"Toponimi","NAMA_UNSUR":"Toponimi","TOPONIMI":"Watuwiti","image":null},"geometry":{"type":"Point","coordinates":[123.052955627000074,-8.308540343999937,0.0]}},
{"type":"Feature","properties":{"OBJECTID":242.0,"LAYER":"Toponimi","NAMA_UNSUR":"Toponimi","TOPONIMI":"Wai Batang","image":null},"geometry":{"type":"Point","coordinates":[123.241958618000012,-8.341126441999961,0.0]}},
{"type":"Feature","properties":{"OBJECTID":246.0,"LAYER":"Toponimi","NAMA_UNSUR":"Toponimi","TOPONIMI":"Wureh","image":null},"geometry":{"type":"Point","coordinates":[123.093780518000017,-8.35175228099996,0.0]}},
{"type":"Feature","properties":{"OBJECTID":254.0,"LAYER":"Toponimi","NAMA_UNSUR":"Gunung","TOPONIMI":"G. BOLENG","image":"gunung-ile-boleng.jpg"},"geometry":{"type":"Point","coordinates":[123.274505615000066,-8.378428458999906,0.0]}},
{"type":"Feature","properties":{"OBJECTID":267.0,"LAYER":"Toponimi","NAMA_UNSUR":"Toponimi","TOPONIMI":"Basarani","image":null},"geometry":{"type":"Point","coordinates":[123.082443237,-8.426635741999917,0.0]}},
{"type":"Feature","properties":{"OBJECTID":280.0,"LAYER":"Toponimi","NAMA_UNSUR":"Toponimi","TOPONIMI":"Lemakera","image":null},"geometry":{"type":"Point","coordinates":[123.157417297000052,-8.48107051799991,0.0]}},
{"type":"Feature","properties":{"OBJECTID":420.0,"LAYER":"Toponimi","NAMA_UNSUR":"Tanjung","TOPONIMI":"Tg. Kapondai","image":null},"geometry":{"type":"Point","coordinates":[122.92569732700008,-8.099384307999912,0.0]}},
{"type":"Feature","properties":{"OBJECTID":421.0,"LAYER":"Toponimi","NAMA_UNSUR":"Tanjung","TOPONIMI":"Tg. Bunga","image":null},"geometry":{"type":"Point","coordinates":[122.77849578900009,-8.14071845999996,0.0]}},
{"type":"Feature","properties":{"OBJECTID":422.0,"LAYER":"Toponimi","NAMA_UNSUR":"Toponimi","TOPONIMI":"Muleng","image":null},"geometry":{"type":"Point","coordinates":[122.989128113000106,-8.144465445999913,0.0]}},
{"type":"Feature","properties":{"OBJECTID":424.0,"LAYER":"Toponimi","NAMA_UNSUR":"Toponimi","TOPONIMI":"Mata","image":null},"geometry":{"type":"Point","coordinates":[122.966606140000067,-8.236608504999936,0.0]}},
{"type":"Feature","properties":{"OBJECTID":426.0,"LAYER":"Toponimi","NAMA_UNSUR":"Teluk","TOPONIMI":"TL. HADING","image":null},"geometry":{"type":"Point","coordinates":[122.885681152000075,-8.268121718999907,0.0]}},
{"type":"Feature","properties":{"OBJECTID":428.0,"LAYER":"Toponimi","NAMA_UNSUR":"Tanjung","TOPONIMI":"Tg. Belabati","image":null},"geometry":{"type":"Point","coordinates":[122.83005523700001,-8.28342437699996,0.0]}},
{"type":"Feature","properties":{"OBJECTID":429.0,"LAYER":"Toponimi","NAMA_UNSUR":"Toponimi","TOPONIMI":"Kotabura","image":null},"geometry":{"type":"Point","coordinates":[122.877067566000051,-8.320078849999959,0.0]}},
{"type":"Feature","properties":{"OBJECTID":430.0,"LAYER":"Toponimi","NAMA_UNSUR":"Tanjung","TOPONIMI":"Tg. Watudama","image":null},"geometry":{"type":"Point","coordinates":[122.775657654000042,-8.331610679999926,0.0]}},
{"type":"Feature","properties":{"OBJECTID":431.0,"LAYER":"Toponimi","NAMA_UNSUR":"Gunung","TOPONIMI":"G. MANDIRI","image":"gunung-ile-mandiri.jpg"},"geometry":{"type":"Point","coordinates":[122.991645813000105,-8.345273971999916,0.0]}},
{"type":"Feature","properties":{"OBJECTID":432.0,"LAYER":"Toponimi","NAMA_UNSUR":"Toponimi","TOPONIMI":"Oka","image":null},"geometry":{"type":"Point","coordinates":[122.954231262,-8.354322432999936,0.0]}},
{"type":"Feature","properties":{"OBJECTID":436.0,"LAYER":"Toponimi","NAMA_UNSUR":"Gunung","TOPONIMI":"G. LEWERO","image":"gunung-ile-lewero.jpg"},"geometry":{"type":"Point","coordinates":[122.852828979000037,-8.391332625999951,0.0]}},
{"type":"Feature","properties":{"OBJECTID":443.0,"LAYER":"Toponimi","NAMA_UNSUR":"Toponimi","TOPONIMI":"Wolo","image":null},"geometry":{"type":"Point","coordinates":[122.916183472000057,-8.442307471999925,0.0]}},
{"type":"Feature","properties":{"OBJECTID":444.0,"LAYER":"Toponimi","NAMA_UNSUR":"Toponimi","TOPONIMI":"Wairunu","image":null},"geometry":{"type":"Point","coordinates":[122.822708130000024,-8.444214820999946,0.0]}},
{"type":"Feature","properties":{"OBJECTID":445.0,"LAYER":"Toponimi","NAMA_UNSUR":"Tanjung","TOPONIMI":"Tg. Motang","image":null},"geometry":{"type":"Point","coordinates":[122.978889465000066,-8.446464538999919,0.0]}},
{"type":"Feature","properties":{"OBJECTID":455.0,"LAYER":"Toponimi","NAMA_UNSUR":"Teluk","TOPONIMI":"TL. KANGO","image":null},"geometry":{"type":"Point","coordinates":[122.866851807000103,-8.518972396999914,0.0]}},
{"type":"Feature","properties":{"OBJECTID":456.0,"LAYER":"Toponimi","NAMA_UNSUR":"Toponimi","TOPONIMI":"Nobo","image":null},"geometry":{"type":"Point","coordinates":[122.812591553000061,-8.524325370999918,0.0]}},
{"type":"Feature","properties":{"OBJECTID":469.0,"LAYER":"Toponimi","NAMA_UNSUR":"Gunung","TOPONIMI":"G. LEWOTOBI PEREMPUAN","image":"gunung-ile-lewotobi-perempuan.jpg"},"geometry":{"type":"Point","coordinates":[122.75673675500002,-8.58339977299994,0.0]}},
{"type":"Feature","properties":{"OBJECTID":476.0,"LAYER":"Toponimi","NAMA_UNSUR":"Toponimi","TOPONIMI":"Lewotobi","image":null},"geometry":{"type":"Point","coordinates":[122.884269714000084,-8.616971015999923,0.0]}}
]
}
